Sheet,nome,status,Answer-status,Name,Answer-Name,Address,A - Address,Address Wrong,Address Wrong,Address Wrong-Word Missing,Address Wrong-Word Missing,Address Wrong-Minor Mistake,Address Wrong-Minor Mistake,Address Wrong-Major Mistake,Address Wrong-Major Mistake,Category,A - Category,Business Hour,A - Business Hour,Tel,A - Tel,Final result,"After Appeal
(Rodrigo)",APPEAL,Reason
Day3,"Rádio Gospel CampinasRua Isaura Aparecida Contarelli, Núcleo Habitacional Lech Walesa, Campinas, Campinas, Região Imediata de Campinas, Região Metropolitana de Campinas, Região Geográfica Intermediária de Campinas, São Paulo, Região Sudeste, 13054-412, BrasilopenOffice and Industrial, Radio Broadcaster",Correct,UV,Correct,Correct,UV,Wrong,null,"[""Minor Mistake"",""Word Missing"",""Major Mistake""]",null,"[""Missing House Number""]",null,"[""Repetition"",""Other Information"",""Misspell""]",null,"[""Wrong Province/City/District/Town""]",Correct,Correct,Correct,Correct,Correct,Correct,Fail,Right,Yes,"Status,Address"
Day3,"AMPLA CONTAINERSRua Braz Cubas, Centro, Santos, Santos, Região Imediata de Santos, Região Metropolitana da Baixada Santista, Região Geográfica Intermediária de São Paulo, São Paulo, Região Sudeste, 11013-925, BrasilopenService, Transportation Service",UV,UV,Correct,Correct,Wrong,Wrong,"[""Minor Mistake"",""Word Missing""]","[""Word Missing"",""Minor Mistake""]","[""Missing House Number""]","[""Missing House Number""]","[""Other Information"",""Repetition""]","[""Repetition"",""Other Information""]",null,null,Correct,Correct,UV,UV,Correct,Correct,Fail,Right,Yes,Address
Day3,"Frizon AdvocaciaRua Coronel Aparício Mariense, Centro, Nhú-Porã, São Borja, Região Geográfica Imediata de São Borja, Região Geográfica Intermediária de Uruguaiana, Rio Grande do Sul, Região Sul, 97670-000, BrasilopenService, Legal Service",UV,UV,Correct,Correct,Wrong,Wrong,"[""Minor Mistake"",""Word Missing""]","[""Minor Mistake"",""Word Missing""]","[""Missing House Number""]","[""Missing House Number""]","[""Other Information""]","[""Other Information""]",null,null,Correct,Correct,UV,UV,Correct,Correct,Right,Right,No,
Day3,"Dsg Farma São Joaquim da Barra1159, Rua São Paulo, João Paulo II, São Joaquim da Barra, São Joaquim da Barra, Região Imediata de São Joaquim da Barra-Orlândia, Região Geográfica Intermediária de Ribeirão Preto, São Paulo, Região Sudeste, 14600-000, BrasilopenHealth, Health and Medicine Store, Pharmacy",Correct,Correct,Correct,Correct,Wrong,Wrong,"[""Minor Mistake"",""Major Mistake""]","[""Minor Mistake"",""Major Mistake""]",null,null,"[""Repetition"",""Other Information""]","[""Repetition"",""Other Information""]","[""Wrong House Number"",""Wrong Province/City/District/Town""]","[""Wrong House Number""]",Correct,Correct,Wrong,UV,Correct,Correct,Fail,Right,Yes,"Address,BH"
Day3,"HIDRONEWS REDENTORATravessa Inácio Egea, Vila Bancária, São José do Rio Preto, São José do Rio Preto, Região Imediata de São José do Rio Preto, Região Geográfica Intermediária de São José do Rio Preto, São Paulo, Região Sudeste, 15015-205, BrasilopenShopping, Sporting Goods Store, Swimming Pool Supply Store",UV,UV,Correct,Correct,Wrong,Wrong,"[""Minor Mistake"",""Major Mistake"",""Word Missing""]","[""Word Missing"",""Minor Mistake"",""Major Mistake""]","[""Missing House Number""]","[""Missing House Number""]","[""Repetition"",""Other Information""]","[""Repetition"",""Other Information""]","[""Wrong Road Name""]","[""Wrong Road Name""]",Correct,Correct,UV,UV,Correct,Correct,Fail,Right,Yes,Address
Day3,"Church Universal White Sand 2Avenida Progresso, Areia Branca, Salvador, Salvador, Região Geográfica Imediata de Salvador, Região Metropolitana de Salvador, Região Geográfica Intermediária de Salvador, Bahia, Região Nordeste, 43700000, BrasilopenReligion, Church",Correct,Correct,Correct,Correct,Wrong,Wrong,"[""Minor Mistake"",""Major Mistake"",""Word Missing""]","[""Word Missing"",""Minor Mistake"",""Major Mistake""]","[""Missing House Number""]","[""Missing House Number"",""Missing Floor/Room Number""]","[""Other Information"",""Repetition""]","[""Repetition"",""Other Information""]","[""Wrong Road Name"",""Wrong Province/City/District/Town""]","[""Wrong Province/City/District/Town"",""Wrong Road Name""]",Correct,Correct,UV,UV,Correct,UV,Fail,Right,Yes,"Address,Tel"
Day3,"Marf Ferro e AçoRua Bom Jesus da Cachoeira, Parque Edu Chaves, Jaçanã, São Paulo, Região Imediata de São Paulo, Região Metropolitana de São Paulo, Região Geográfica Intermediária de São Paulo, São Paulo, Região Sudeste, 02236-020, BrasilopenOffice and Industrial, Company",UV,UV,Correct,Correct,Wrong,Wrong,"[""Minor Mistake"",""Word Missing""]","[""Word Missing"",""Minor Mistake""]","[""Missing House Number""]","[""Missing House Number""]","[""Other Information""]","[""Other Information""]",null,null,Correct,Correct,Wrong,Wrong,Correct,Correct,Fail,Right,Yes,Address
Day3,"Network Plus SupermarketsRua Thomaz Antônio Villani, 135, Rua Thomaz Antônio Vilani, Cachoeirinha, São Paulo, Região Imediata de São Paulo, Região Metropolitana de São Paulo, Região Geográfica Intermediária de São Paulo, São Paulo, Região Sudeste, 02562-010, BrasilopenShopping, Supermarket",Correct,Correct,Correct,Correct,Wrong,Wrong,"[""Minor Mistake"",""Major Mistake""]","[""Major Mistake"",""Minor Mistake""]",null,null,"[""Other Information""]","[""Repetition"",""Other Information""]","[""Wrong House Number"",""Wrong Province/City/District/Town""]","[""Wrong Province/City/District/Town"",""Wrong House Number""]",Correct,Correct,UV,UV,Correct,Correct,Fail,Fail,No,
Day3,"DIP CORE BRASIL LTDA EPPRua Ludgero Dolabela, Gutierrez, Gutierrez, Regional Oeste, Belo Horizonte, Região Geográfica Imediata de Belo Horizonte, Região Metropolitana de Belo Horizonte, Região Geográfica Intermediária de Belo Horizonte, Minas Gerais, Região Sudeste, 30441-036, BrasilopenOffice and Industrial, Company",UV,UV,Wrong,Wrong,Wrong,Wrong,"[""Word Missing"",""Minor Mistake""]","[""Word Missing"",""Minor Mistake""]","[""Missing House Number"",""Missing Floor/Room Number""]","[""Missing House Number"",""Missing Floor/Room Number""]","[""Other Information"",""Repetition""]","[""Repetition"",""Other Information""]",null,null,Correct,Correct,UV,UV,Correct,Correct,Fail,Right,Yes,Address
Day3,"UbaSurf MotorsUbatuba, Sao Paulo, BrazilopenShopping, Sporting Goods Store, Bicycle Store",null,UV,null,Correct,null,Wrong,null,"[""Word Missing""]",null,"[""Missing Road Name"",""Missing House Number""]",null,null,null,null,null,Correct,null,Correct,null,Correct,Fail,TBD,Yes,"Status,Name,Address,Catergory,BH,Tel"
Day3,"Happy Pizza UberabaAvenida Leopoldino de Oliveira, Vila Frei Eugênio, Uberaba, Região Geográfica Imediata de Uberaba, Região Geográfica Intermediária de Uberaba, Minas Gerais, Região Sudeste, 38015-400, BrasilopenFood and Drink, Restaurant, Pizza Restaurant",Correct,Correct,Correct,Correct,Wrong,Wrong,"[""Minor Mistake"",""Word Missing"",""Major Mistake""]","[""Word Missing"",""Minor Mistake"",""Major Mistake""]","[""Missing House Number""]","[""Missing House Number""]","[""Other Information""]","[""Other Information""]","[""Wrong Province/City/District/Town""]","[""Wrong Province/City/District/Town""]",Correct,Correct,Correct,Correct,Correct,Correct,Fail,Right,Yes,Address
Day3,"Aulas Particulares de Inglês e PortuguêsRua Henrique Dumont, Rua Henrique Dumont, Jardim Paulista, Ribeirão Preto, Ribeirão Preto, Região Imediata de Ribeirão Preto, Região Metropolitana de Ribeirão Preto, Região Geográfica Intermediária de Ribeirão Preto, São Paulo, Região Sudeste, 14090-200, Brasil0Education, Tutoring Service",UV,UV,UV,Correct,UV,Wrong,null,"[""Word Missing"",""Minor Mistake""]",null,"[""Missing Floor/Room Number"",""Missing House Number""]",null,"[""Repetition"",""Other Information""]",null,null,UV,Correct,UV,UV,UV,Correct,Fail,Fail,Yes,"Name,Address"
Day3,"Marisa Bússolo Corretora de Imóveis508, Avenida Luiz de Camões, Coral, Lages, Região Geográfica Imediata de Lages, Região Geográfica Intermediária de Lages, Santa Catarina, 88523-000, BrasilopenService, Real Estate Service, Real Estate Agency",UV,UV,Correct,Correct,Wrong,Wrong,"[""Minor Mistake"",""Major Mistake""]","[""Minor Mistake"",""Major Mistake""]",null,null,"[""Other Information""]","[""Other Information""]","[""Wrong House Number""]","[""Wrong House Number""]",Correct,Correct,Correct,UV,Correct,Correct,Fail,Fail,Yes,BH
Day3,"Vi'LaVi Escola de ConfeitariaPiracicaba, Sao Paulo, BrazilopenEducation, School",UV,UV,Correct,Correct,Wrong,Wrong,"[""Word Missing""]","[""Word Missing""]","[""Missing House Number"",""Missing Road Name"",""Missing Province/City/District/Town""]","[""Missing Province/City/District/Town"",""Missing Road Name"",""Missing House Number""]",null,null,null,null,Correct,Correct,Correct,UV,Correct,Correct,Fail,Right,Yes,BH
Day3,"Makmetal serralheria e calhas em geralSao Jose dos Pinhais, Parana, BrazilopenOffice and Industrial, Company",UV,UV,Wrong,Correct,Wrong,Wrong,"[""Word Missing""]","[""Word Missing""]","[""Missing Road Name"",""Missing House Number""]","[""Missing Road Name"",""Missing House Number""]",null,null,null,null,Correct,Correct,Wrong,Wrong,Correct,Correct,Fail,Right,Yes,"Name,Address"
Day3,"Templo Umbamdista Vovó Cambinda das AlmasRua Manuel Duarte, Porto Velho, São Gonçalo, Região Geográfica Imediata do Rio de Janeiro, Região Metropolitana do Rio de Janeiro, Região Geográfica Intermediária do Rio de Janeiro, Rio de Janeiro, Região Sudeste, 24431-005, BrasilopenReligion",UV,UV,Wrong,Wrong,Wrong,Wrong,"[""Minor Mistake"",""Word Missing""]","[""Word Missing"",""Minor Mistake""]","[""Missing House Number""]","[""Missing House Number""]","[""Misspell"",""Other Information""]","[""Other Information""]",null,null,Correct,Correct,Correct,Correct,Correct,Correct,Fail,Right,Yes,Address
Day3,"Cacau ShowTravessa Boulevard Manoel Aguiar Rivero, Jardim Professor Francisco Morato, Centro, Francisco Morato, Francisco Morato, Região Imediata de São Paulo, Região Metropolitana de São Paulo, Região Geográfica Intermediária de São Paulo, São Paulo, Região Sudeste, BrasilopenShopping, Food and Beverage Retail, Chocolate Store",Correct,UV,Correct,Correct,Wrong,Wrong,"[""Minor Mistake"",""Major Mistake"",""Word Missing""]","[""Word Missing"",""Minor Mistake"",""Major Mistake""]","[""Missing House Number""]","[""Missing House Number""]","[""Repetition"",""Other Information""]","[""Repetition"",""Other Information""]","[""Wrong Road Name""]","[""Wrong Road Name""]",Correct,Correct,Correct,Correct,Correct,Correct,Fail,Right,Yes,"Status,Address"
Day3,"Auto School Brasiliense South TaguatingaFederal District, Federal District, BrazilopenEducation, Driving School",Correct,Correct,Correct,Correct,Wrong,Wrong,"[""Word Missing"",""Minor Mistake""]","[""Word Missing"",""Minor Mistake""]","[""Missing Road Name"",""Missing House Number"",""Missing Floor/Room Number"",""Missing Province/City/District/Town""]","[""Missing Province/City/District/Town"",""Missing Road Name"",""Missing House Number"",""Missing Floor/Room Number""]","[""Repetition""]","[""Repetition""]",null,null,Correct,Correct,Correct,UV,Correct,Correct,Fail,Fail,Yes,"Address,BH"
Day3,"Congregação Cristã no Brasil - Jardim Bela VistaRua Maria do Carmo Melo, Jardim Bela Vista, Itapeva, Itapeva, Região Imediata de Itapeva, Região Geográfica Intermediária de Sorocaba, São Paulo, Região Sudeste, 184121-30, BrasilopenReligion, Church, Christian Church",Correct,Correct,Correct,Correct,Wrong,Wrong,"[""Word Missing"",""Minor Mistake""]","[""Word Missing"",""Minor Mistake"",""Major Mistake""]","[""Missing House Number""]","[""Missing House Number""]","[""Other Information"",""Repetition""]","[""Repetition"",""Other Information""]",null,"[""Wrong Province/City/District/Town"",""Wrong Road Name""]",Correct,Correct,UV,UV,UV,UV,Fail,Right,Yes,Address
Day3,"Centro Odontológico Sorrir BemRua Antunes Ribas, Cohab, Santo Ângelo, Santo Ângelo, Região Geográfica Imediata de Santo Ângelo, Região Geográfica Intermediária de Ijui, Rio Grande do Sul, Região Sul, 98803-230, BrasilopenHealth, Clinic, Dentist",UV,UV,Correct,Correct,Wrong,Wrong,"[""Word Missing"",""Minor Mistake"",""Major Mistake""]","[""Word Missing"",""Major Mistake"",""Minor Mistake""]","[""Missing House Number""]","[""Missing House Number""]","[""Other Information"",""Repetition""]","[""Repetition"",""Other Information""]","[""Wrong Province/City/District/Town""]","[""Wrong Province/City/District/Town""]",Correct,Correct,Correct,UV,Correct,UV,Fail,Right,Yes,"Address,BH,Tel"
Day3,"Cartão de Todos - Nova IguaçuRua Coronel Bernardino de Melo - 2201, Rua Coronel Bernardino de Melo, Centro, Nova Iguaçu, Região Metropolitana do Rio de Janeiro, Região Geográfica Intermediária do Rio de Janeiro, Rio de Janeiro, Região Sudeste, 26210-000, BrasilopenOffice and Industrial, Company",UV,UV,Correct,Correct,Wrong,Wrong,"[""Word Missing"",""Minor Mistake""]","[""Word Missing"",""Minor Mistake""]","[""Missing Floor/Room Number""]","[""Missing Floor/Room Number""]","[""Repetition"",""Other Information""]","[""Repetition"",""Other Information""]",null,null,Correct,Correct,Wrong,Wrong,Correct,Correct,Right,TBD,Yes,"Status,Address"
Day3,"VTA FERRAMENTASNovo São Joaquim, Região Geográfica Imediata de Barra do Garças, Região Geográfica Intermediária de Barra do Garças, Mato Grosso, Região Centro-Oeste, BrasilopenShopping, Construction Supplies Store, Hardware Store",Wrong,UV,Correct,Correct,Wrong,Wrong,"[""Word Missing"",""Minor Mistake"",""Major Mistake""]","[""Word Missing"",""Minor Mistake"",""Major Mistake""]","[""Missing Province/City/District/Town"",""Missing Road Name"",""Missing House Number""]","[""Missing Province/City/District/Town"",""Missing Road Name"",""Missing House Number""]","[""Other Information""]","[""Other Information""]","[""Wrong Province/City/District/Town""]","[""Wrong Province/City/District/Town""]",Correct,Correct,null,UV,Correct,Correct,Fail,Fail,Yes,"Status,Address"
Day3,"AL. Game CellAvenida Automóvel Clube, Redentor, Belford Roxo, Região Geográfica Imediata do Rio de Janeiro, Região Metropolitana do Rio de Janeiro, Região Geográfica Intermediária do Rio de Janeiro, Rio de Janeiro, Região Sudeste, 26196030, BrasilopenOther POI",UV,UV,Correct,Correct,UV,UV,null,null,null,null,null,null,null,null,Wrong,Wrong,Correct,UV,Correct,Correct,Fail,Fail,No,
Day3,"Selma Teixeira de MirandaAvenida Engenheiro Assis Ribeiro, Marechal Hermes, Zona Norte do Rio de Janeiro, Região Geográfica Imediata do Rio de Janeiro, Região Metropolitana do Rio de Janeiro, Região Geográfica Intermediária do Rio de Janeiro, Rio de Janeiro, Região Sudeste, 21610-210, BrasilopenHealth, Mental Health Service, Psychologist",Correct,Correct,Correct,Correct,Wrong,Wrong,"[""Minor Mistake"",""Word Missing"",""Major Mistake""]","[""Word Missing"",""Minor Mistake"",""Major Mistake""]","[""Missing Floor/Room Number"",""Missing House Number""]","[""Missing House Number"",""Missing Floor/Room Number""]","[""Other Information""]","[""Other Information""]","[""Wrong Road Name""]","[""Wrong Road Name""]",Correct,Correct,UV,UV,Correct,Correct,Fail,Right,Yes,Address
Day3,"Clínica Saúde PopularRua Bartolomeu de Gusmão, Canudos, Novo Hamburgo, Novo Hamburgo, Região Geográfica Imediata de Novo Hamburgo - São Leopoldo, Região Metropolitana de Porto Alegre, Região Geográfica Intermediária de Porto Alegre, Rio Grande do Sul, Região Sul, 93542-030, BrasilopenHealth, Clinic",Correct,UV,Correct,Correct,Wrong,Wrong,"[""Word Missing"",""Minor Mistake""]","[""Word Missing"",""Minor Mistake""]","[""Missing House Number""]","[""Missing House Number""]","[""Repetition"",""Other Information""]","[""Repetition"",""Other Information""]",null,null,Correct,Correct,Correct,Correct,Correct,Correct,Fail,Right,Yes,"Status,Address"
Day3,"Tork MultimarcasAlinhaMix, 80, Rua Monsenhor João Rodrigues, Industrial 3ª Seção, Industrial, Contagem, Região Geográfica Imediata de Belo Horizonte, Região Metropolitana de Belo Horizonte, Região Geográfica Intermediária de Belo Horizonte, Minas Gerais, Região Sudeste, 32220-460, BrasilopenShopping, Automotive Retail",UV,Correct,Correct,Correct,Wrong,Wrong,"[""Minor Mistake"",""Major Mistake""]","[""Minor Mistake"",""Major Mistake""]",null,null,"[""Other Information""]","[""Other Information""]","[""Wrong House Number""]","[""Wrong Province/City/District/Town"",""Wrong House Number""]",Correct,Correct,UV,UV,Correct,Correct,Fail,Right,Yes,"Status,Address"
Day3,"Serraluga - Locação de EquipamentosParque Petrópolis Paulista, Roseira, Mairiporã, Mairiporã, Região Imediata de São Paulo, Região Metropolitana de São Paulo, Região Geográfica Intermediária de São Paulo, São Paulo, Região Sudeste, 07726-620, BrasilopenService",Correct,Correct,Correct,Correct,Wrong,Wrong,"[""Minor Mistake"",""Word Missing"",""Major Mistake""]","[""Word Missing"",""Minor Mistake"",""Major Mistake""]","[""Missing House Number"",""Missing Road Name""]","[""Missing Road Name"",""Missing House Number""]","[""Other Information"",""Repetition""]","[""Repetition"",""Other Information""]","[""Wrong Province/City/District/Town""]","[""Wrong Province/City/District/Town""]",Correct,Correct,Wrong,Wrong,Correct,Correct,Fail,Right,Yes,Address
Day3,"Papelaria Cheia de BrilhoRua Caçapava, Baeta Neves, São Bernardo do Campo, São Bernardo do Campo, Região Imediata de São Paulo, Região Metropolitana de São Paulo, Região Geográfica Intermediária de São Paulo, São Paulo, Região Sudeste, 09751-185, BrasilopenShopping, Office Supply Store, Stationery Store",UV,UV,Correct,Correct,Wrong,Wrong,"[""Minor Mistake"",""Word Missing""]","[""Word Missing"",""Minor Mistake""]","[""Missing House Number""]","[""Missing House Number""]","[""Other Information"",""Repetition""]","[""Repetition"",""Other Information""]",null,null,Correct,Correct,UV,UV,Correct,Correct,Fail,Right,Yes,Address
Day3,"Odontoclinic MaríliaRua Sergipe, Santa Alice, Pozzobon, Votuporanga, Votuporanga, Região Imediata de Votuporanga, Região Geográfica Intermediária de São José do Rio Preto, São Paulo, Região Sudeste, 15.500-006, BrasilopenHealth, Clinic, Dentist",Correct,Correct,Correct,Correct,Wrong,Wrong,"[""Minor Mistake"",""Major Mistake"",""Word Missing""]","[""Word Missing"",""Minor Mistake"",""Major Mistake""]","[""Missing House Number""]","[""Missing House Number""]","[""Other Information"",""Repetition""]","[""Repetition"",""Other Information""]","[""Wrong Road Name"",""Wrong Province/City/District/Town""]","[""Wrong Province/City/District/Town"",""Wrong Road Name""]",Correct,Correct,Correct,Correct,Correct,Correct,Fail,Right,Yes,Address
Day3,"Mainhardt265, Rua Tibagi, Centro, Curitiba, Região Geográfica Imediata de Curitiba, Região Metropolitana de Curitiba, Região Geográfica Intermediária de Curitiba, Paraná, Região Sul, 80060-110, BrasilopenOffice and Industrial, Company, Business Management Consultant",UV,UV,Correct,Correct,Wrong,Wrong,"[""Minor Mistake"",""Major Mistake"",""Word Missing""]","[""Word Missing"",""Minor Mistake"",""Major Mistake""]","[""Missing Floor/Room Number""]","[""Missing Floor/Room Number""]","[""Other Information""]","[""Other Information""]","[""Wrong Road Name"",""Wrong House Number"",""Wrong Province/City/District/Town""]","[""Wrong Province/City/District/Town"",""Wrong Road Name"",""Wrong House Number""]",Correct,Correct,UV,UV,UV,UV,Fail,Right,Yes,Address
Practice 1,"Larissa Martins - Advogada CriminalClaudio, Minas Gerais, BrazilopenService, Legal Service, Law Office",UV,Correct,Correct,Correct,Wrong,Wrong,"[""Word Missing""]","[""Word Missing""]","[""Missing Road Name"",""Missing House Number"",""Missing Floor/Room Number""]","[""Missing Province/City/District/Town"",""Missing Road Name"",""Missing House Number"",""Missing Floor/Room Number""]",null,null,null,null,Correct,Correct,Correct,Correct,Correct,Correct,Fail,Right,Yes,"Status,Address"
Practice 1,"Embalagens Vip268, Rua Conselheiro Dantas, Canindé, São Paulo, Região Imediata de São Paulo, Região Metropolitana de São Paulo, Região Geográfica Intermediária de São Paulo, São Paulo, Região Sudeste, 03032-020, BrasilopenOther POI",UV,UV,Correct,Correct,Wrong,Wrong,"[""Minor Mistake"",""Major Mistake""]","[""Major Mistake"",""Minor Mistake""]",null,null,"[""Other Information""]","[""Other Information"",""Repetition""]","[""Wrong House Number""]","[""Wrong House Number""]",Wrong,Wrong,Wrong,Wrong,Correct,Correct,Fail,Right,Yes,Address
Practice 1,"Churrascaria e Pizzaria Q' DeliciaRua da Independência, Paripe, Salvador, Salvador, Região Geográfica Imediata de Salvador, Região Metropolitana de Salvador, Região Geográfica Intermediária de Salvador, Bahia, Região Nordeste, 40800-570, BrasilopenFood and Drink, Restaurant, Barbecue Restaurant",Correct,Correct,Correct,Correct,Wrong,Wrong,"[""Minor Mistake"",""Major Mistake""]","[""Minor Mistake"",""Major Mistake""]",null,null,"[""Repetition"",""Other Information""]","[""Other Information"",""Repetition""]","[""Wrong Road Name""]","[""Wrong Road Name""]",Correct,Correct,Correct,Correct,Correct,Correct,Fail,Right,Yes,Address
Practice 1,"Barangandan FestasEstação SESC-Pompéia, Rua Venâncio Aires, Pompéia, Perdizes, São Paulo, Região Imediata de São Paulo, Região Metropolitana de São Paulo, Região Geográfica Intermediária de São Paulo, São Paulo, Região Sudeste, 05022-000, BrasilopenOther POI",null,null,Wrong,Wrong,null,null,null,null,null,null,null,null,null,null,null,null,null,null,null,null,Right,Right,No,
Practice 1,"Persianas Nety LtdaVila do Pinheiro, Flamengo, Zona Sul do Rio de Janeiro, Região Geográfica Imediata do Rio de Janeiro, Região Metropolitana do Rio de Janeiro, Região Geográfica Intermediária do Rio de Janeiro, Rio de Janeiro, Região Sudeste, 22220-050, BrasilopenService, Home Improvement Service, Doors and Windows Service, Blinds Shop",UV,UV,Correct,Correct,Wrong,Wrong,"[""Word Missing"",""Minor Mistake""]","[""Minor Mistake"",""Word Missing""]","[""Missing Road Name"",""Missing House Number"",""Missing Floor/Room Number""]","[""Missing Road Name"",""Missing House Number"",""Missing Floor/Room Number""]","[""Other Information""]","[""Other Information""]",null,null,Correct,Correct,UV,UV,Correct,Correct,Fail,Right,Yes,Address
Practice 1,"Marcelo Tattoo Studio80, Rua Barão de Tramandaí, Vila Alpina, Vila Prudente, São Paulo, Região Imediata de São Paulo, Região Metropolitana de São Paulo, Região Geográfica Intermediária de São Paulo, São Paulo, Região Sudeste, 03207-000, BrasilopenService, Health and Beauty Service, Tattoo Shop",Correct,UV,Correct,Correct,Wrong,UV,"[""Minor Mistake"",""Major Mistake""]",null,null,null,"[""Other Information""]",null,"[""Wrong House Number""]",null,Correct,Correct,Correct,UV,Correct,UV,Fail,Right,Yes,"Status,Address,BH,Tel"
Practice 1,"É Mais ComunicaçãoRua Barão de Melgaço, Do Porto, Cuiabá, Região Geográfica Imediata de Cuiabá, Região Geográfica Intermediária de Cuiabá, Mato Grosso, Região Centro-Oeste, 78030-970, BrasilopenOffice and Industrial, Company, Advertising Agency",UV,UV,Correct,Correct,Wrong,Wrong,"[""Minor Mistake"",""Word Missing"",""Major Mistake""]","[""Minor Mistake"",""Word Missing""]","[""Missing House Number""]","[""Missing House Number""]","[""Other Information""]","[""Other Information""]","[""Wrong Province/City/District/Town""]",null,Correct,Correct,Correct,UV,Correct,Correct,Fail,Right,Yes,"Address,BH"
Practice 1,"Amadeirado Móveis e DecoraçãoEstrada União e Indústria, Benfica, Região Geográfica Imediata de Petrópolis, Região Metropolitana do Rio de Janeiro, Região Geográfica Intermediária de Petrópolis, Rio de Janeiro, Região Sudeste, 25745-071, BrasilopenOther POI",UV,UV,UV,UV,UV,UV,null,null,null,null,null,null,null,null,UV,UV,UV,UV,UV,UV,Right,Right,No,
Practice 1,"REL Soluções em TIItaquaquecetuba, Sao Paulo, BrazilopenOffice and Industrial, Technology Business, IT Service",UV,UV,Correct,Correct,Wrong,Wrong,"[""Word Missing""]","[""Word Missing""]","[""Missing Road Name"",""Missing House Number"",""Missing Province/City/District/Town""]","[""Missing Road Name"",""Missing House Number"",""Missing Floor/Room Number""]",null,null,null,null,Correct,Correct,Wrong,Wrong,Correct,Correct,Fail,Right,Yes,Address
Practice 1,"Malas Campinas e Modas Val SuperStarRua Bernardino Bonavita, Parque São Jorge, Campinas, Campinas, Região Imediata de Campinas, Região Metropolitana de Campinas, Região Geográfica Intermediária de Campinas, São Paulo, Região Sudeste, 13064-812, BrasilopenShopping, Bag Shop",UV,UV,Correct,Correct,Wrong,Wrong,"[""Minor Mistake"",""Major Mistake"",""Word Missing""]","[""Word Missing"",""Minor Mistake"",""Major Mistake""]","[""Missing House Number""]","[""Missing House Number""]","[""Other Information"",""Repetition""]","[""Other Information"",""Repetition""]","[""Wrong Province/City/District/Town"",""Wrong Road Name""]","[""Wrong Province/City/District/Town"",""Wrong Road Name""]",Correct,Correct,UV,UV,Correct,Correct,Fail,Right,Yes,Address
Practice 1,"Alicerce EducaçãoRua Benedito Soares Pinto, Campo Largo, Região Geográfica Imediata de Curitiba, Região Metropolitana de Curitiba, Região Geográfica Intermediária de Curitiba, Paraná, Região Sul, 83601-160, BrasilopenEducation, Education Center",Correct,UV,Correct,Correct,Wrong,UV,"[""Minor Mistake"",""Word Missing""]",null,"[""Missing House Number""]",null,"[""Other Information""]",null,null,null,Correct,Correct,Correct,UV,Correct,Correct,Fail,Right,Yes,"Status,Address"
Practice 1,"MARTA RODRIGUESRua Benedito Araújo, Perpétuo Socorro, São João da Boa Vista, São João da Boa Vista, Região Imediata de São João da Boa Vista, Região Geográfica Intermediária de Campinas, São Paulo, Região Sudeste, 13870-537, BrasilopenService, Legal Service, Law Office",UV,UV,Correct,Correct,Wrong,UV,"[""Minor Mistake"",""Word Missing""]",null,"[""Missing House Number"",""Missing Province/City/District/Town""]",null,"[""Other Information"",""Repetition""]",null,null,null,Correct,Correct,UV,UV,Correct,Correct,Fail,Fail,Yes,Address
Practice 1,"Campos Society PillaMarilia, Sao Paulo, BrazilopenOther POI",UV,UV,Correct,Correct,UV,UV,null,null,null,null,null,null,null,null,Wrong,Wrong,UV,UV,Correct,Correct,Right,Right,No,
Practice 1,"Podologia Vila Mariana (Podóloga Verônica de Oliveira)Sao Paulo, Sao Paulo, BrazilopenService, Health and Beauty Service, Beauty Salon",UV,UV,UV,UV,UV,UV,null,null,null,null,null,null,null,null,UV,UV,UV,UV,UV,UV,Right,Right,No,
Practice 1,"Parque Bondinho Pão De AçúcarAV. PASTEUR, 520 – URCA – RIO DE JANEIRO – RJcloseOutdoors and Recreation, Park, Natural Park",Wrong,Wrong,Correct,Correct,Correct,Correct,null,null,null,null,null,null,null,null,Correct,Correct,Wrong,Wrong,UV,Wrong,Fail,Right,Yes,Tel
Practice 1,"Fisk Bela Vista | Inglês e EspanholRua Mário Barreto, Jardim Bela Vista, Santo André, Santo André, Região Imediata de São Paulo, Região Metropolitana de São Paulo, Região Geográfica Intermediária de São Paulo, São Paulo, Região Sudeste, 09041-380, BrasilopenEducation, Language School",Correct,Correct,Correct,Correct,Wrong,Wrong,"[""Minor Mistake"",""Major Mistake"",""Word Missing""]","[""Word Missing"",""Minor Mistake"",""Major Mistake""]","[""Missing House Number""]","[""Missing House Number""]","[""Other Information"",""Repetition""]","[""Repetition"",""Other Information""]","[""Wrong Province/City/District/Town"",""Wrong Road Name""]","[""Wrong Road Name""]",Correct,Correct,Correct,Wrong,Correct,Correct,Fail,Right,Yes,"Address,BH"
Practice 1,Itapevi,null,null,Wrong,Wrong,null,null,null,null,null,null,null,null,null,null,null,null,null,null,null,null,Right,Right,No,
Practice 1,"Cat Clínica de Assistência Ao Trabalhador10, Rua Professor Afonso Celso de Paula Lima, Ponta da Praia, Santos, Santos, Região Imediata de Santos, Região Metropolitana da Baixada Santista, Região Geográfica Intermediária de São Paulo, São Paulo, Região Sudeste, 11030-400, BrasilopenService",Correct,UV,Correct,Correct,Wrong,Wrong,"[""Minor Mistake"",""Major Mistake""]","[""Minor Mistake"",""Major Mistake""]",null,null,"[""Other Information"",""Repetition""]","[""Repetition"",""Other Information""]","[""Wrong House Number""]","[""Wrong House Number""]",Correct,Correct,Correct,UV,Correct,Correct,Fail,Right,Yes,"Status,BH"
Practice 1,"DC Set Group1489, Avenida Presidente Juscelino Kubitschek, Vila Olímpia, Itaim Bibi, São Paulo, Região Imediata de São Paulo, Região Metropolitana de São Paulo, Região Geográfica Intermediária de São Paulo, São Paulo, Região Sudeste, 04543-011, BrasilopenOffice and Industrial, Company",Correct,UV,Correct,Correct,Wrong,Wrong,"[""Minor Mistake"",""Major Mistake""]","[""Minor Mistake"",""Major Mistake""]",null,null,"[""Other Information""]","[""Other Information"",""Repetition""]","[""Wrong Province/City/District/Town"",""Wrong House Number""]","[""Wrong Province/City/District/Town"",""Wrong House Number""]",Correct,Correct,UV,UV,Correct,Correct,Fail,Right,Yes,"Status,Address"
Practice 1,"Nossogaz LucianoCampinas, Sao Paulo, BrazilopenOffice and Industrial, Company, Gas Company",UV,UV,Correct,Correct,Wrong,Wrong,"[""Word Missing""]","[""Word Missing""]","[""Missing Province/City/District/Town"",""Missing Road Name"",""Missing House Number""]","[""Missing Province/City/District/Town"",""Missing Road Name"",""Missing House Number""]",null,null,null,null,Correct,Correct,Correct,Correct,Correct,Correct,Right,Right,No,
Practice 1,"produtos177, Rua Benedito Campos Morais, Vila Anastácio, São Paulo, Região Imediata de São Paulo, Região Metropolitana de São Paulo, Região Geográfica Intermediária de São Paulo, São Paulo, Região Sudeste, 05092-000, BrasilopenService, Repair Service, Appliance Repair Service",UV,UV,UV,UV,UV,UV,null,null,null,null,null,null,null,null,UV,UV,UV,UV,UV,UV,Right,Right,No,
Practice 1,"Guitar CompanyRua Samuel Agenor Angenistki, Gamboa, Cabo Frio, Região Geográfica Imediata de Cabo Frio, Região Geográfica Intermediária de Macaé-Rio das Ostras-Cabo Frio, Rio de Janeiro, Região Sudeste, 28915550, BrasilopenShopping, Musical Instrument Store",UV,UV,Correct,Correct,Wrong,Wrong,"[""Major Mistake"",""Minor Mistake"",""Word Missing""]","[""Word Missing"",""Minor Mistake"",""Major Mistake""]","[""Missing House Number""]","[""Missing House Number"",""Missing Floor/Room Number""]","[""Other Information""]","[""Other Information""]","[""Wrong Road Name""]","[""Wrong Province/City/District/Town"",""Wrong Road Name""]",Correct,Correct,UV,UV,Correct,Correct,Fail,Right,Yes,Address
Practice 1,"Centro Estético Kelly ReginaVila Rica, Mato Grosso, BrazilopenService, Health and Beauty Service, Beauty Salon",UV,UV,Correct,Correct,Wrong,Wrong,"[""Word Missing""]","[""Word Missing""]","[""Missing Road Name"",""Missing House Number"",""Missing Province/City/District/Town""]","[""Missing Province/City/District/Town"",""Missing Road Name"",""Missing House Number""]",null,null,null,null,Correct,Correct,Correct,UV,Correct,UV,Fail,Fail,Yes,"Address,BH,Tel"
Practice 1,"Serralheria Estrutural Melhor preçoSao Paulo, Sao Paulo, BrazilopenOffice and Industrial, Company, Mechanic",UV,UV,Correct,Correct,Wrong,Wrong,"[""Word Missing""]","[""Word Missing""]","[""Missing Road Name"",""Missing House Number""]","[""Missing Province/City/District/Town"",""Missing Road Name"",""Missing House Number""]",null,null,null,null,Correct,Correct,UV,UV,Correct,Correct,Fail,Fail,No,
Practice 1,"Unny Bolos e Doces FinosAvenida Rui Barbosa, Bom Jesus, São José dos Pinhais, Região Geográfica Imediata de Curitiba, Região Metropolitana de Curitiba, Região Geográfica Intermediária de Curitiba, Paraná, Região Sul, 83005-070, BrasilopenFood and Drink, Dessert/Bakery, Pastry Shop",UV,UV,Correct,Correct,Wrong,Wrong,"[""Minor Mistake"",""Word Missing"",""Major Mistake""]","[""Word Missing"",""Minor Mistake""]","[""Missing House Number""]","[""Missing Province/City/District/Town"",""Missing House Number""]","[""Other Information""]","[""Other Information""]","[""Wrong Province/City/District/Town""]",null,Correct,Correct,Correct,UV,Correct,UV,Fail,Right,Yes,"Address,BH"
Practice 1,"MadeiraMadeiraAvenida José Fonseca e Silva, Luizote de Freitas, Setor Oeste, Uberlândia, Região Geográfica Imediata de Uberlândia, Região Geográfica Intermediária de Uberlândia, Minas Gerais, Região Sudeste, 38.414-126, BrasilopenShopping, Furniture and Home Store",Correct,Correct,Correct,Correct,Wrong,Wrong,"[""Minor Mistake"",""Word Missing"",""Major Mistake""]","[""Word Missing"",""Minor Mistake""]","[""Missing House Number"",""Missing Floor/Room Number""]","[""Missing House Number"",""Missing Floor/Room Number""]","[""Other Information""]","[""Other Information""]","[""Wrong Province/City/District/Town""]",null,Correct,Correct,Correct,Correct,UV,Wrong,Fail,Right,Yes,"Address,Tel"
Practice 1,"Colégio Maria RaytheRua Haddock Lobo, Tijuca, Zona Norte do Rio de Janeiro, Região Geográfica Imediata do Rio de Janeiro, Região Metropolitana do Rio de Janeiro, Região Geográfica Intermediária do Rio de Janeiro, Rio de Janeiro, Região Sudeste, 20260200, BrasilopenEducation, School, Private School",Correct,Correct,Correct,Correct,Wrong,Wrong,"[""Minor Mistake"",""Word Missing""]","[""Word Missing"",""Minor Mistake""]","[""Missing House Number""]","[""Missing House Number""]","[""Other Information""]","[""Other Information""]",null,null,Correct,Correct,Wrong,Wrong,Correct,Correct,Fail,Right,Yes,Address
Practice 1,"Instituto Ethos CogitarePraça Monsenhor Alfredo de Arruda Câmara, Afogados da Ingazeira, Afogados da Ingazeira, Região Geográfica Imediata de Afogados da Ingazeira, Região Geográfica Intermediária de Serra Talhada, Pernambuco, Região Nordeste, 56800-000, BrasilopenHealth, Mental Health Service, Psychologist",Correct,Correct,Correct,Correct,Wrong,Wrong,"[""Minor Mistake"",""Major Mistake"",""Word Missing""]","[""Word Missing"",""Major Mistake""]","[""Missing House Number"",""Missing Province/City/District/Town""]","[""Missing Road Name"",""Missing House Number""]","[""Other Information"",""Repetition""]",null,"[""Wrong Road Name""]","[""Wrong Province/City/District/Town""]",Correct,Correct,UV,UV,Correct,Correct,Fail,Right,Yes,Address
Practice 1,Neymar Jr,null,null,Wrong,Wrong,null,null,null,null,null,null,null,null,null,null,null,null,null,null,null,null,Right,Right,No,
Practice 1,"Quitanda Santo Antonio Campo GrandeCampo Grande, Mato Grosso do Sul, BrazilopenShopping, Food and Beverage Retail, Grocery Store, Green Grocers",UV,UV,Correct,UV,UV,UV,null,null,null,null,null,null,null,null,Correct,UV,UV,UV,UV,UV,Fail,Right,Yes,"Name,Catergory"
Practice 1,"California CoffeeBaixo Pedreira, Bairro da Luz, Nova Iguaçu, Região Metropolitana do Rio de Janeiro, Região Geográfica Intermediária do Rio de Janeiro, Rio de Janeiro, Região Sudeste, 26260-045, BrasilopenFood and Drink, Coffee, Coffee Shop",Correct,Correct,Correct,Correct,Wrong,Wrong,"[""Minor Mistake"",""Word Missing""]","[""Word Missing"",""Minor Mistake"",""Major Mistake""]","[""Missing Road Name"",""Missing House Number"",""Missing Floor/Room Number"",""Missing Building Name""]","[""Missing House Number""]","[""Other Information""]","[""Other Information""]",null,"[""Wrong Province/City/District/Town"",""Wrong Road Name""]",Correct,Correct,Wrong,UV,Correct,Correct,Fail,Right,Yes,"Address,BH"
Practice 1,São Paulo,null,null,Wrong,Wrong,null,null,null,null,null,null,null,null,null,null,null,null,null,null,null,null,Right,Right,No,
Practice 1,"TABACARIA MOI EXPRESS - REDENTORA3947, Rua General Glicério, Vila São Pedro, São José do Rio Preto, São José do Rio Preto, Região Imediata de São José do Rio Preto, Região Geográfica Intermediária de São José do Rio Preto, São Paulo, Região Sudeste, 15015-410, BrasilopenShopping, Tobacco Store",UV,UV,Correct,Correct,UV,UV,null,null,null,null,null,null,null,null,Correct,Correct,UV,UV,Correct,Correct,Right,Right,No,
Practice 1,"Celso Brinquedos InfláveisRua Lélio Ferraz de Siqueira, Jaú, Jaú, Região Imediata de Jaú, Região Geográfica Intermediária de Bauru, São Paulo, Região Sudeste, BrasilopenShopping, Party Store",UV,UV,Correct,Correct,Wrong,Wrong,"[""Minor Mistake"",""Word Missing"",""Major Mistake""]","[""Word Missing"",""Minor Mistake"",""Major Mistake""]","[""Missing House Number"",""Missing Province/City/District/Town""]","[""Missing Province/City/District/Town"",""Missing House Number""]","[""Other Information"",""Repetition""]","[""Repetition"",""Other Information""]","[""Wrong Road Name""]","[""Wrong Road Name""]",Correct,Correct,UV,UV,Correct,Correct,Fail,Right,Yes,Address
Practice 1,"Happy Pizza UberabaAvenida Leopoldino de Oliveira, Vila Frei Eugênio, Uberaba, Região Geográfica Imediata de Uberaba, Região Geográfica Intermediária de Uberaba, Minas Gerais, Região Sudeste, 38015-400, BrasilopenFood and Drink, Restaurant, Pizza Restaurant",Correct,Correct,Correct,Correct,Wrong,Wrong,"[""Minor Mistake"",""Major Mistake"",""Word Missing""]","[""Word Missing"",""Minor Mistake"",""Major Mistake""]","[""Missing House Number""]","[""Missing House Number""]","[""Other Information""]","[""Other Information""]","[""Wrong Province/City/District/Town""]","[""Wrong Province/City/District/Town""]",Correct,Correct,Correct,Correct,Correct,Correct,Fail,Right,Yes,Address
Practice 1,"Moacir Fercon Produções ArtísticasRua das Verbenas, Campinas, Campinas, Região Imediata de Campinas, Região Metropolitana de Campinas, Região Geográfica Intermediária de Campinas, São Paulo, Região Sudeste, 13050-080, BrasilopenEducation, College and University, Art School",UV,UV,Correct,Correct,Wrong,Wrong,"[""Minor Mistake"",""Major Mistake"",""Word Missing""]","[""Word Missing"",""Minor Mistake"",""Major Mistake""]","[""Missing Province/City/District/Town"",""Missing House Number""]","[""Missing Province/City/District/Town"",""Missing House Number""]","[""Other Information"",""Repetition""]","[""Repetition"",""Other Information""]","[""Wrong Road Name""]","[""Wrong Road Name""]",Correct,Correct,UV,UV,Correct,Correct,Fail,Right,Yes,Address
Practice 1,"Psicóloga Ericka SantosRecife, Pernambuco, BrazilopenHealth, Mental Health Service, Psychologist",UV,UV,Correct,Correct,Wrong,Wrong,"[""Word Missing""]","[""Word Missing""]","[""Missing Province/City/District/Town"",""Missing Road Name"",""Missing House Number"",""Missing Floor/Room Number""]","[""Missing Province/City/District/Town"",""Missing Road Name"",""Missing House Number"",""Missing Floor/Room Number""]",null,null,null,null,Correct,Correct,UV,UV,Correct,Correct,Right,Right,No,
Practice 1,"Safe Trace SA5, Rua Coronel Renó, Centro, Itajubá, Itajubá, Região Geográfica Imediata de Itajubá, Região Geográfica Intermediária de Pouso Alegre, Minas Gerais, Região Sudeste, 37501-042, BrasilopenOffice and Industrial, Company, Business To Business Service",UV,UV,Correct,Correct,Wrong,Wrong,"[""Minor Mistake"",""Others"",""Major Mistake""]","[""Word Missing"",""Major Mistake"",""Minor Mistake""]",null,"[""Missing Floor/Room Number""]","[""Other Information"",""Repetition""]","[""Repetition"",""Other Information""]","[""Wrong House Number""]","[""Wrong Road Name""]",Correct,Correct,UV,UV,Correct,Correct,Fail,Fail,Yes,Address
Practice 1,"Paula Moraes BoutiqueRua Batista Perozzo, Boa Esperança, Paulínia, Paulínia, Região Imediata de Campinas, Região Metropolitana de Campinas, Região Geográfica Intermediária de Campinas, São Paulo, Região Sudeste, 13140-162, BrasilopenShopping, Clothing Store, Women Clothing Store",Correct,UV,Correct,Correct,Wrong,Wrong,"[""Major Mistake"",""Minor Mistake"",""Word Missing""]","[""Word Missing"",""Minor Mistake"",""Major Mistake""]","[""Missing House Number""]","[""Missing House Number""]","[""Other Information"",""Repetition""]","[""Repetition"",""Other Information""]","[""Wrong Road Name""]","[""Wrong Province/City/District/Town"",""Wrong Road Name""]",Correct,Correct,Correct,UV,Correct,Correct,Fail,Right,Yes,"Status,Address,BH"
Practice 1,"Aulas Particulares de Inglês e PortuguêsRua Henrique Dumont, Rua Henrique Dumont, Jardim Paulista, Ribeirão Preto, Ribeirão Preto, Região Imediata de Ribeirão Preto, Região Metropolitana de Ribeirão Preto, Região Geográfica Intermediária de Ribeirão Preto, São Paulo, Região Sudeste, 14090-200, BrasilopenEducation, Tutoring Service",UV,#N/A,UV,#N/A,UV,#N/A,null,#N/A,null,#N/A,null,#N/A,null,#N/A,UV,#N/A,UV,#N/A,UV,#N/A,#N/A,Right,Yes,
Practice 1,"Salão de Beleza Clinic HairRua Justino de Oliveira, Centro, Lontras, Região Geográfica Imediata de Rio do Sul, Região Geográfica Intermediária de Blumenau, Santa Catarina, 89182-000, BrasilopenService, Health and Beauty Service, Beauty Salon",UV,UV,Correct,Correct,Wrong,Wrong,"[""Word Missing"",""Minor Mistake""]","[""Word Missing"",""Minor Mistake""]","[""Missing House Number""]","[""Missing House Number""]","[""Other Information""]","[""Other Information""]",null,null,Correct,Correct,UV,UV,Correct,Correct,Right,Right,No,
Practice 1,"WebSpotSanta Clara 33, 33, Rua Santa Clara, Bairro Peixoto, Copacabana, Rio de Janeiro, Região Geográfica Imediata do Rio de Janeiro, Região Metropolitana do Rio de Janeiro, Região Geográfica Intermediária do Rio de Janeiro, Rio de Janeiro, Região Sudeste, 22041-011, BrasilopenOffice and Industrial, Technology Business, IT Service",UV,UV,Correct,Correct,Wrong,Wrong,"[""Word Missing"",""Minor Mistake"",""Major Mistake""]","[""Word Missing"",""Minor Mistake"",""Major Mistake""]","[""Missing Floor/Room Number""]","[""Missing Floor/Room Number""]","[""Repetition"",""Other Information""]","[""Other Information"",""Repetition""]","[""Wrong House Number""]","[""Wrong House Number""]",Correct,Correct,Correct,UV,Correct,Correct,Fail,Fail,Yes,"Address,BH"
Practice 1,"ID MóveisEstrada da Água Espraiada, Água Espraiada, Caucaia do Alto, Cotia, Região Imediata de São Paulo, Região Metropolitana de São Paulo, Região Geográfica Intermediária de São Paulo, São Paulo, Região Sudeste, 06726-466, BrasilopenService, Home Improvement Service, Furniture Maker",Correct,UV,Correct,Correct,Wrong,Wrong,"[""Minor Mistake"",""Word Missing""]","[""Word Missing"",""Minor Mistake""]","[""Missing House Number""]","[""Missing House Number""]","[""Other Information""]","[""Other Information""]",null,null,Correct,Correct,Correct,UV,Correct,Correct,Fail,Right,Yes,"Status,Address,BH"
Practice 1,"SolarX EngenhariaRodovia Deputado Willy Saldanha, Barra Nova, Caicó, Caicó, Região Geográfica Imediata de Caicó, Região Geográfica Intermediária de Caicó, Rio Grande do Norte, Região Nordeste, 59300000, BrasilopenOther POI",Correct,UV,Correct,Correct,Wrong,Wrong,"[""Word Missing"",""Minor Mistake""]","[""Word Missing"",""Major Mistake"",""Minor Mistake""]","[""Missing House Number""]","[""Missing House Number""]","[""Other Information"",""Repetition""]","[""Repetition"",""Other Information""]",null,"[""Wrong Road Name""]",Wrong,Wrong,UV,UV,UV,Wrong,Fail,Fail,Yes,"Status,Tel"
Practice 1,"Macau DiveRua Marechal Antônio Sousa, Jardim América, Zona Norte do Rio de Janeiro, Região Geográfica Imediata do Rio de Janeiro, Região Metropolitana do Rio de Janeiro, Região Geográfica Intermediária do Rio de Janeiro, Rio de Janeiro, Região Sudeste, 21241-460, BrasilopenOther POI",UV,UV,Correct,Correct,Wrong,Wrong,"[""Word Missing"",""Minor Mistake"",""Major Mistake""]","[""Word Missing"",""Minor Mistake""]","[""Missing Floor/Room Number""]","[""Missing House Number""]","[""Repetition"",""Other Information""]","[""Other Information""]","[""Wrong House Number""]",null,Correct,Wrong,Correct,UV,Correct,Correct,Fail,Right,Yes,"Status,Address,BH"
Practice 1,"Empreiteira Paula SJRua Esmeraldas, Santa Luzia, Sede, Contagem, Região Geográfica Imediata de Belo Horizonte, Região Metropolitana de Belo Horizonte, Região Geográfica Intermediária de Belo Horizonte, Minas Gerais, Região Sudeste, 32017170, BrasilopenOffice and Industrial, Company, Construction Company",UV,UV,Correct,UV,Wrong,UV,"[""Word Missing"",""Minor Mistake"",""Major Mistake""]",null,"[""Missing House Number""]",null,"[""Other Information""]",null,"[""Wrong Province/City/District/Town""]",null,Correct,UV,UV,UV,UV,UV,Fail,Right,Yes,Name
Practice 1,"Baterias 24 Horas Confins Disk BateriasRua Vinte e Oito de Outubro, Gameleira, Distrito Industrial, Confins, Região Geográfica Imediata de Belo Horizonte, Região Metropolitana de Belo Horizonte, Região Geográfica Intermediária de Belo Horizonte, Minas Gerais, Região Sudeste, 33500-000, BrasilopenShopping, Automotive Retail, Car Parts and Accessories, Car Battery Store",UV,UV,UV,UV,UV,UV,null,null,null,null,null,null,null,null,UV,UV,UV,UV,UV,UV,Right,Right,No,
Practice 1,"Maria Marra ModaRua Ouro Preto, Niterói, Jardim das Alterosas, Betim, Região Geográfica Imediata de Belo Horizonte, Região Metropolitana de Belo Horizonte, Região Geográfica Intermediária de Belo Horizonte, Minas Gerais, Região Sudeste, 32672068, BrasilopenShopping, Clothing Store",Correct,UV,Correct,Correct,Wrong,Wrong,"[""Minor Mistake"",""Word Missing""]","[""Word Missing"",""Minor Mistake""]","[""Missing House Number""]","[""Missing House Number""]","[""Other Information""]","[""Other Information""]",null,null,Correct,Correct,Correct,UV,UV,Correct,Fail,Right,Yes,"Status,Address,BH,Tel"
Practice 1,"Ferragista Engenove Distribuidora de ParafusosAvenida Presidente Kennedy, Bairro Maracanâ, Anápolis, Região Geográfica Imediata de Anápolis, Região Geográfica Intermediária de Goiânia, Goiás, Região Centro-Oeste, 75040040, BrasilopenShopping, Wholesale Store",UV,UV,Correct,UV,Wrong,UV,"[""Word Missing"",""Minor Mistake""]",null,"[""Missing House Number""]",null,"[""Other Information""]",null,null,null,Correct,UV,UV,UV,Correct,UV,Fail,Right,Yes,"Name,Address,Catergory,Tel"
Practice 1,"Franqueiro AutomóveisAvenida Brasil, Brasil, Setor Central, Uberlândia, Região Geográfica Imediata de Uberlândia, Região Geográfica Intermediária de Uberlândia, Minas Gerais, Região Sudeste, 38400-662, BrasilopenShopping, Automotive Retail, Car Dealership, Used Car Dealership",Correct,Correct,Correct,Correct,Wrong,Wrong,"[""Minor Mistake"",""Word Missing""]","[""Word Missing"",""Minor Mistake""]","[""Missing House Number""]","[""Missing House Number""]","[""Other Information""]","[""Other Information""]",null,null,Correct,Correct,UV,UV,Correct,Correct,Fail,Right,Yes,Address
Practice 2,"Opção Imobiliária696, Alameda Yayá, Torres Tibagy, Guarulhos, Guarulhos, Região Imediata de São Paulo, Região Metropolitana de São Paulo, Região Geográfica Intermediária de São Paulo, São Paulo, Região Sudeste, 07060-000, BrasilopenService, Real Estate Service, Real Estate Agency",UV,UV,Correct,Correct,Wrong,Wrong,"[""Minor Mistake"",""Major Mistake""]","[""Minor Mistake"",""Major Mistake""]",null,null,"[""Repetition"",""Other Information""]","[""Repetition"",""Other Information""]","[""Wrong Province/City/District/Town"",""Wrong House Number""]","[""Wrong Province/City/District/Town"",""Wrong House Number""]",Correct,Correct,UV,UV,Correct,UV,Fail,Right,Yes,"Address,Tel"
Practice 2,"Cw3 Filial CatalaoRua Moises Santana, Catalão, Região Geográfica Imediata de Catalão, Região Geográfica Intermediária de Goiânia, Goiás, Região Centro-Oeste, 75701972, BrasilopenService, Logistic Service, Trucking Company",Correct,Correct,Correct,Correct,Wrong,Wrong,"[""Minor Mistake"",""Major Mistake"",""Word Missing""]","[""Word Missing"",""Major Mistake"",""Minor Mistake""]","[""Missing House Number"",""Missing Province/City/District/Town""]","[""Missing Province/City/District/Town"",""Missing House Number"",""Missing Floor/Room Number""]","[""Other Information""]","[""Other Information""]","[""Wrong Road Name""]","[""Wrong Road Name""]",Correct,Correct,UV,UV,Correct,Correct,Fail,Fail,No,
Practice 2,"Loyalty TattooSorocaba, Sao Paulo, BrazilopenService, Health and Beauty Service, Tattoo Shop",UV,UV,UV,Correct,UV,UV,null,null,null,null,null,null,null,null,UV,Correct,UV,Correct,UV,Correct,Fail,Fail,Yes,Name
Practice 2,"VR Materiais ElétricosVila Pompéia, Ribeirão Preto, Ribeirão Preto, Região Imediata de Ribeirão Preto, Região Metropolitana de Ribeirão Preto, Região Geográfica Intermediária de Ribeirão Preto, São Paulo, Região Sudeste, 14060680, BrasilopenShopping, Furniture and Home Store, Home Appliance Store",UV,UV,Correct,UV,Wrong,UV,"[""Minor Mistake"",""Word Missing"",""Major Mistake""]",null,"[""Missing House Number"",""Missing Road Name""]",null,"[""Other Information"",""Repetition""]",null,"[""Wrong Province/City/District/Town""]",null,Correct,UV,UV,UV,Correct,UV,Fail,Right,Yes,Name
Practice 2,"Select Car MultimarcasRua São Joaquim, Vila Lutfalla, Jardim Santa Felícia, São Carlos, Região Imediata de São Carlos, Região Geográfica Intermediária de Araraquara, São Paulo, Região Sudeste, 13570-591, BrasilopenShopping, Automotive Retail, Car Dealership, Used Car Dealership",Correct,UV,Correct,Correct,Wrong,Wrong,"[""Minor Mistake"",""Word Missing"",""Major Mistake""]","[""Word Missing"",""Minor Mistake"",""Major Mistake""]","[""Missing House Number""]","[""Missing House Number""]","[""Other Information""]","[""Other Information""]","[""Wrong Province/City/District/Town""]","[""Wrong Province/City/District/Town""]",Correct,Correct,Wrong,Wrong,Correct,Correct,Fail,Right,Yes,"Status,Address"
Practice 2,"Dtwo Wedding | Vestidos de Festa127, Rua Venezuela, Ponta Aguda, Blumenau, Região Geográfica Imediata de Blumenau, Região Geográfica Intermediária de Blumenau, Santa Catarina, 89050-000, BrasilopenShopping, Clothing Store",UV,UV,Correct,Correct,Wrong,Wrong,"[""Minor Mistake"",""Major Mistake""]","[""Minor Mistake"",""Major Mistake""]",null,null,"[""Other Information""]","[""Other Information""]","[""Wrong House Number""]","[""Wrong House Number""]",Correct,Correct,UV,UV,Correct,Correct,Right,Right,No,
Practice 2,"Rodrigo Porta PhotographyRua Rangel Pestana, Cidade Alta, Piracicaba, Piracicaba, Região Imediata de Piracicaba, Região Metropolitana de Piracicaba, Região Geográfica Intermediária de Campinas, São Paulo, Região Sudeste, 13419100, BrasilopenService, Photography Service, Photographer",UV,UV,Correct,Correct,UV,Wrong,null,"[""Minor Mistake"",""Major Mistake""]",null,null,null,"[""Other Information"",""Repetition""]",null,"[""Wrong Province/City/District/Town"",""Wrong Road Name""]",Correct,Correct,UV,Correct,Correct,Correct,Fail,Right,Yes,Address
Practice 2,"Segurança OperáriaAvenida dos Municípios, Operário, Campo Bom, Campo Bom, Região Geográfica Imediata de Novo Hamburgo - São Leopoldo, Região Metropolitana de Porto Alegre, Região Geográfica Intermediária de Porto Alegre, Rio Grande do Sul, Região Sul, 93542-870, BrasilopenService, Security Service, Security Service",UV,UV,UV,Correct,UV,UV,null,null,null,null,null,null,null,null,UV,Correct,UV,Correct,UV,UV,Fail,Right,Yes,Name
Practice 2,"Kennifa Santos - Espaço Estética e BelezaManaus, Amazonas, BrazilopenService, Health and Beauty Service, Beauty Salon",UV,UV,Correct,UV,UV,UV,null,null,null,null,null,null,null,null,Correct,UV,UV,UV,Correct,UV,Fail,Right,Yes,"Name,Catergory"
Practice 2,"Doce PimentaAvenida Rubens Caramez, Vila Aurora, Parque Suburbano, Itapevi, Itapevi, Região Imediata de São Paulo, Região Metropolitana de São Paulo, Região Geográfica Intermediária de São Paulo, São Paulo, Região Sudeste, 06663-300, BrasilopenShopping, Clothing Store",Correct,UV,Correct,Correct,Wrong,Wrong,"[""Minor Mistake"",""Major Mistake"",""Word Missing""]","[""Word Missing"",""Minor Mistake"",""Major Mistake""]","[""Missing House Number""]","[""Missing House Number"",""Missing Floor/Room Number""]","[""Other Information"",""Repetition""]","[""Repetition"",""Other Information""]","[""Wrong Province/City/District/Town""]","[""Wrong Province/City/District/Town""]",Correct,Correct,Wrong,UV,UV,Correct,Fail,Fail,Yes,"Status,Address,BH,Tel"
Practice 2,"Bless Moda MasculinaAvenida General Carlos Guedes, Campo Alegre, Campo Alegre, Regional Norte, Belo Horizonte, Região Geográfica Imediata de Belo Horizonte, Região Metropolitana de Belo Horizonte, Região Geográfica Intermediária de Belo Horizonte, Minas Gerais, Região Sudeste, 31720-440, BrasilopenShopping, Clothing Store, Man Clothing Store",Correct,null,Correct,Correct,Wrong,Wrong,"[""Minor Mistake"",""Major Mistake"",""Word Missing""]","[""Word Missing"",""Minor Mistake"",""Major Mistake""]","[""Missing House Number""]","[""Missing House Number""]","[""Other Information"",""Repetition""]","[""Repetition"",""Other Information""]","[""Wrong Road Name"",""Wrong Province/City/District/Town""]","[""Wrong Province/City/District/Town"",""Wrong Road Name""]",Correct,Correct,UV,UV,UV,UV,Fail,Right,Yes,"Status,Address"
Practice 2,"GasSolar Aquecedores e AcessóriosAvenida Antônio Frederico Ozanam, Vila Agostinho Zambon, Vila Rio Branco, Jundiaí, Jundiaí, Região Imediata de Jundiaí, Região Geográfica Intermediária de Campinas, São Paulo, Região Sudeste, 13215-011, BrasilopenOffice and Industrial, Company, Heating Equipment Supplier",UV,UV,Correct,Correct,Wrong,Wrong,"[""Minor Mistake"",""Word Missing""]","[""Word Missing"",""Minor Mistake""]","[""Missing House Number"",""Missing Floor/Room Number""]","[""Missing House Number""]","[""Other Information"",""Repetition"",""Misspell""]","[""Repetition"",""Other Information""]",null,null,Correct,Correct,Correct,Correct,Correct,Correct,Fail,Right,Yes,Address
Practice 2,"ÁPICE PROFISSIONALRua Flores Do Piauí, Rua Flores do Piauí, Vila Carmosina, Itaquera, São Paulo, Região Imediata de São Paulo, Região Metropolitana de São Paulo, Região Geográfica Intermediária de São Paulo, São Paulo, Região Sudeste, 08210-200, BrasilopenEducation, School, Private School",UV,UV,Correct,Correct,Wrong,Wrong,"[""Minor Mistake"",""Word Missing""]","[""Minor Mistake"",""Word Missing""]","[""Missing House Number""]","[""Missing Road Name""]","[""Repetition"",""Other Information""]","[""Other Information"",""Repetition""]",null,null,Correct,Correct,Wrong,UV,UV,UV,Fail,Fail,Yes,Address
Practice 2,"Bike Shop MaringaAvenida Mauá, 2857, Avenida Mauá, Zona 01, Maringá, Região Geográfica Imediata de Maringá, Região Geográfica Intermediária de Maringá, Paraná, Região Sul, 87013020, BrasilopenShopping, Sporting Goods Store, Bicycle Store",Correct,UV,Correct,Correct,Wrong,UV,"[""Major Mistake"",""Minor Mistake""]",null,null,null,"[""Other Information"",""Repetition""]",null,"[""Wrong House Number"",""Wrong Province/City/District/Town""]",null,Correct,Correct,Correct,UV,Correct,Correct,Fail,Right,Yes,"Status,Address,BH"
Practice 2,"Oficina Dois IrmãosRua Carlos Kampfert, Santa Cecília, Região Geográfica Imediata de Curitibanos, Região Geográfica Intermediária de Lages, Santa Catarina, 89540-000, BrasilopenService, Automotive Service, Automotive Repair",UV,UV,UV,Correct,UV,Wrong,null,"[""Word Missing"",""Minor Mistake"",""Major Mistake""]",null,"[""Missing House Number""]",null,"[""Other Information""]",null,"[""Wrong Province/City/District/Town"",""Wrong Road Name""]",UV,Correct,UV,Wrong,UV,UV,Fail,Fail,Yes,Name
Practice 2,"Dantral Comércio e Servicos ElétricosRua Zeferino Alves de Oliveira, Núcleo Ponta Alta, Bonsucesso, Jardim Presidente Dutra, Guarulhos, Região Imediata de São Paulo, Região Metropolitana de São Paulo, Região Geográfica Intermediária de São Paulo, São Paulo, Região Sudeste, 07179-000, BrasilopenOffice and Industrial, Company, Electrical Engineer",UV,UV,Correct,Correct,Wrong,UV,"[""Minor Mistake"",""Word Missing"",""Major Mistake""]",null,"[""Missing House Number""]",null,"[""Other Information""]",null,"[""Wrong Province/City/District/Town""]",null,Correct,Correct,UV,UV,Correct,UV,Fail,Right,Yes,Address
Practice 2,"Maxifarma MatinhosAvenida Londrina, Caiobá, Matinhos, Região Geográfica Imediata de Paranaguá, Região Geográfica Intermediária de Curitiba, Paraná, Região Sul, 83260-000, BrasilopenHealth, Health and Medicine Store, Pharmacy",Correct,UV,Correct,Correct,Wrong,Wrong,"[""Minor Mistake"",""Word Missing"",""Major Mistake""]","[""Word Missing"",""Minor Mistake"",""Major Mistake""]","[""Missing House Number""]","[""Missing House Number""]","[""Other Information""]","[""Other Information""]","[""Wrong Road Name""]","[""Wrong Road Name""]",Correct,Correct,Correct,UV,Correct,Correct,Fail,Right,Yes,Address
Practice 2,"Asssociação Comunitária do Bairro SiderurgiaRua da Fiel, Siderurgia, Ouro Branco, Região Geográfica Imediata de Conselheiro Lafaiete, Minas Gerais, Região Sudeste, 36420000, BrasilopenOffice and Industrial, Community Center",Correct,UV,Correct,UV,UV,UV,null,null,null,null,null,null,null,null,Correct,UV,UV,UV,Correct,UV,Fail,Right,Yes,"Status,Name,Catergory,Tel"
Practice 2,"DepilartEstrada da Curva do Carneiro, Vila dos Comerciários, Lorena, Lorena, Região Imediata de Guaratinguetá, Região Metropolitana do Vale do Paraíba e Litoral Norte, Região Geográfica Intermediária de São José dos Campos, São Paulo, Região Sudeste, 12610-520, BrasilopenService, Health and Beauty Service, Hair Removal Service",Correct,UV,Correct,Correct,Wrong,Wrong,"[""Major Mistake"",""Minor Mistake"",""Others""]","[""Word Missing"",""Minor Mistake"",""Major Mistake""]",null,"[""Missing House Number""]","[""Other Information"",""Repetition""]","[""Other Information"",""Repetition""]","[""Wrong Road Name""]","[""Wrong Road Name""]",Correct,Correct,Correct,UV,Correct,Correct,Fail,Right,Yes,"Status,Address,BH"
Practice 2,"Advogada - Ana GuilhermeRua Dercy Gonçalves, Adrianópolis, Manaus, Manaus, Região Geográfica Imediata de Manaus, Região Geográfica Intermediária de Manaus, Amazonas, Região Norte, 69000-000, BrasilopenService, Legal Service, Tax Attorney",UV,UV,UV,UV,UV,UV,null,null,null,null,null,null,null,null,UV,UV,UV,UV,UV,UV,Right,Right,No,
Practice 2,"Lanches MariniAv Pio XII, Capivari, Capivari, Região Imediata de Piracicaba, Região Metropolitana de Piracicaba, Região Geográfica Intermediária de Campinas, São Paulo, Região Sudeste, 13370-000, BrasilopenFood and Drink, Restaurant, Snack Bar",UV,UV,Correct,Correct,Wrong,Wrong,"[""Minor Mistake"",""Word Missing""]","[""Word Missing"",""Minor Mistake""]","[""Missing House Number""]","[""Missing Province/City/District/Town"",""Missing House Number""]","[""Other Information"",""Repetition""]","[""Repetition"",""Other Information""]",null,null,Correct,Correct,UV,Correct,Correct,Correct,Fail,Right,Yes,"Address,BH"
Practice 2,"Carol Centro Integrado de EstéticaRua Voluntários da Pátria, Botafogo, Rio de Janeiro, Região Geográfica Imediata do Rio de Janeiro, Região Metropolitana do Rio de Janeiro, Região Geográfica Intermediária do Rio de Janeiro, Rio de Janeiro, Região Sudeste, 22260-005, BrasilopenHealth, Clinic, Orthopedic Surgeon",UV,UV,Wrong,Wrong,Wrong,Wrong,"[""Minor Mistake"",""Word Missing""]","[""Word Missing"",""Minor Mistake""]","[""Missing House Number"",""Missing Floor/Room Number""]","[""Missing Floor/Room Number"",""Missing House Number""]","[""Other Information""]","[""Other Information"",""Repetition""]",null,null,Correct,Correct,UV,UV,Correct,Correct,Fail,Right,Yes,Address
Practice 2,"Kindrone Imagens Aereas266, Rua Capitão Ferraiuolo, Água Rasa, Água Rasa, São Paulo, Região Imediata de São Paulo, Região Metropolitana de São Paulo, Região Geográfica Intermediária de São Paulo, São Paulo, Região Sudeste, 03348-000, BrasilopenService, Photography Service, Aerial Photographer",UV,UV,Correct,UV,UV,UV,null,null,null,null,null,null,null,null,Correct,UV,UV,UV,Correct,UV,Fail,Right,Yes,Address
Practice 2,"Borba Móveis1329, Rodovia José Spilere, Vila Higino Romagna, Nova Veneza, Região Geográfica Imediata de Criciúma, Região Geográfica Intermediária de Criciúma, Santa Catarina, 88868-000, BrasilopenShopping, Furniture and Home Store",Correct,Correct,Correct,Correct,Wrong,Wrong,"[""Minor Mistake"",""Major Mistake""]","[""Minor Mistake"",""Major Mistake""]",null,null,"[""Other Information""]","[""Other Information""]","[""Wrong Road Name"",""Wrong House Number"",""Wrong Province/City/District/Town""]","[""Wrong House Number""]",Correct,Correct,UV,UV,Correct,Correct,Fail,Right,Yes,Address
Practice 2,"Empporium Frei Caneca - Revendedor Exclusivo Deca2150, Avenida Ayrton Senna, Barra da Tijuca, Rio de Janeiro, Região Geográfica Imediata do Rio de Janeiro, Região Metropolitana do Rio de Janeiro, Região Geográfica Intermediária do Rio de Janeiro, Rio de Janeiro, Região Sudeste, 22775-900, BrasilopenOffice and Industrial, Company",Correct,UV,Wrong,Wrong,Wrong,Wrong,"[""Word Missing"",""Minor Mistake""]","[""Word Missing"",""Minor Mistake""]","[""Missing Building Name"",""Missing Floor/Room Number""]","[""Missing Floor/Room Number""]","[""Other Information""]","[""Other Information""]",null,null,Correct,Correct,Wrong,UV,Correct,Correct,Fail,Right,Yes,"Status,Address"
Practice 2,"VIA MAR ACTIVEWEARRua General Aldemar Rocha, Jóquei, Teresina, Região Geográfica Imediata de Teresina, Região Integrada de Desenvolvimento da Grande Teresina, Região Geográfica Intermediária de Teresina, Piauí, Região Nordeste, 64049740, BrasilopenShopping, Sporting Goods Store, Sportswear Store",Correct,UV,Correct,Correct,Wrong,Wrong,"[""Word Missing"",""Minor Mistake"",""Major Mistake""]","[""Word Missing"",""Minor Mistake"",""Major Mistake""]","[""Missing House Number""]","[""Missing House Number""]","[""Other Information""]","[""Other Information""]","[""Wrong Road Name""]","[""Wrong Road Name""]",Correct,Correct,UV,Correct,Correct,Correct,Fail,Right,Yes,"Status,Address"
Practice 2,"Andriolli e Azevedo - Advogados em AmericanaRua José Ferreira Aranha, Girassol, Americana, Americana, Região Imediata de Campinas, Região Metropolitana de Campinas, Região Geográfica Intermediária de Campinas, São Paulo, Região Sudeste, 13465240, BrasilopenService, Legal Service",UV,UV,Correct,Wrong,Wrong,Wrong,"[""Word Missing"",""Minor Mistake"",""Major Mistake""]","[""Word Missing"",""Minor Mistake""]","[""Missing House Number""]","[""Missing House Number""]","[""Other Information"",""Repetition""]","[""Repetition"",""Other Information""]","[""Wrong Province/City/District/Town""]",null,Correct,Correct,Correct,Correct,Correct,Correct,Fail,Right,Yes,Name
Practice 2,"Thiago MultimarcasRua Oscar Dias de Macedo, Jardim das Araucárias II, Castro, Região Geográfica Imediata de Ponta Grossa, Região Geográfica Intermediária de Ponta Grossa, Paraná, Região Sul, 84172-520, BrasilopenShopping, Automotive Retail, Car Dealership, Used Car Dealership",UV,UV,Correct,Correct,Wrong,UV,"[""Minor Mistake"",""Major Mistake""]",null,null,null,"[""Other Information""]",null,"[""Wrong Road Name""]",null,Correct,Correct,Wrong,UV,Correct,UV,Fail,Right,Yes,"Address,BH,Tel"
Practice 2,"Cirúrgica GonçalvesRua Ipião, Centro, Araxá, Região Geográfica Imediata de Araxá, Região Geográfica Intermediária de Uberaba, Minas Gerais, Região Sudeste, 38180-084, BrasilopenOther POI",UV,UV,Correct,Correct,Wrong,UV,"[""Minor Mistake"",""Word Missing"",""Major Mistake""]",null,"[""Missing House Number""]",null,"[""Other Information""]",null,"[""Wrong Road Name""]",null,Wrong,Wrong,UV,UV,Correct,Correct,Fail,Right,Yes,Address
Practice 2,"1º Oficio de Registro GaruvaAvenida Celso Ramos, Centro, Garuva, Região Geográfica Imediata de Joinville, Região Geográfica Intermediária de Joinville, Santa Catarina, 89248-000, BrasilopenOffice and Industrial, Office",UV,UV,UV,Correct,UV,Wrong,null,"[""Word Missing"",""Minor Mistake""]",null,"[""Missing House Number""]",null,"[""Other Information""]",null,null,UV,Correct,UV,UV,UV,Correct,Fail,Right,Yes,Name
Practice 2,"Residencial Parque dos LagosMogi Guacu, Sao Paulo, BrazilcloseResidential, Apartment Complex",Wrong,UV,Correct,UV,Wrong,UV,"[""Word Missing""]",null,"[""Missing House Number"",""Missing Road Name""]",null,null,null,null,null,Correct,UV,Correct,UV,Correct,UV,Fail,Right,Yes,"Status,Name,Address,Catergory,BH,Tel"
Practice 2,"Plantão de Vendas Yticon - MaringáAvenida Mandacaru, Conjunto Residencial Planvile, Maringá, Região Geográfica Imediata de Maringá, Região Geográfica Intermediária de Maringá, Paraná, Região Sul, 87080-563, BrasilopenOffice and Industrial, Company, Construction Company",Correct,Correct,Correct,Correct,Wrong,Wrong,"[""Word Missing"",""Minor Mistake"",""Major Mistake""]","[""Minor Mistake"",""Word Missing"",""Major Mistake""]","[""Missing House Number""]","[""Missing House Number""]","[""Other Information""]","[""Other Information""]","[""Wrong Province/City/District/Town""]","[""Wrong Province/City/District/Town""]",Correct,Correct,Correct,UV,Correct,UV,Fail,Right,Yes,"Address,BH,Tel"
Practice 2,"Democratas Diretório Regional do Paraná42, Rua José Sabóia Cortes, Ahú, Curitiba, Região Geográfica Imediata de Curitiba, Região Metropolitana de Curitiba, Região Geográfica Intermediária de Curitiba, Paraná, Região Sul, 80504-000, BrasilopenOffice and Industrial, Organization, Political Party",null,UV,Wrong,Correct,null,UV,null,null,null,null,null,null,null,null,null,UV,null,UV,null,UV,Fail,Right,Yes,Name
Practice 2,"Granvittà Medicina Fetal e Saúde da MulherRua Bento Gonçalves, Centro, Primeiro Distrito, Caxias do Sul, Região Geográfica Imediata de Caxias do Sul, Região Geográfica Intermediária de Caxias do Sul, Rio Grande do Sul, Região Sul, 95020-412, BrasilopenOffice and Industrial, Company",Correct,Correct,Correct,Correct,UV,Wrong,null,"[""Word Missing"",""Major Mistake"",""Minor Mistake""]",null,"[""Missing House Number"",""Missing Floor/Room Number""]",null,"[""Other Information""]",null,"[""Wrong Road Name""]",Wrong,Correct,UV,UV,Correct,Correct,Fail,Right,Yes,"Address,Catergory"
Practice 2,"BARROS DISTRIBUIDORA DE PEÇAS AUTOMOTIVASManaus, Amazonas, BrazilopenOffice and Industrial, Company",UV,UV,Correct,Correct,Wrong,Wrong,"[""Word Missing""]","[""Word Missing"",""Major Mistake""]","[""Missing Road Name"",""Missing House Number"",""Missing Province/City/District/Town""]","[""Missing House Number"",""Missing Road Name""]",null,null,null,"[""Wrong Province/City/District/Town""]",Correct,Correct,UV,UV,UV,UV,Fail,Right,Yes,Address
Practice 2,"Atual Card Chapecó2027, Avenida São Pedro - E, Jardim América, Chapecó, Região Geográfica Imediata de Chapecó, Região Geográfica Intermediária de Chapecó, Santa Catarina, 89803-402, BrasilopenService, Print/copy Store",Correct,Correct,Correct,Correct,Wrong,Wrong,"[""Minor Mistake"",""Major Mistake""]","[""Major Mistake""]",null,null,"[""Other Information""]",null,"[""Wrong Province/City/District/Town""]","[""Wrong House Number""]",Correct,Correct,Wrong,UV,Correct,Correct,Fail,Fail,No,
Practice 2,"Okamura EquipamentosRua Adélia, Granja Viana, Cotia, Cotia, Região Imediata de São Paulo, Região Metropolitana de São Paulo, Região Geográfica Intermediária de São Paulo, São Paulo, Região Sudeste, 06708230, BrasilopenService, Agriculture, Livestock and Forestry Service, Farm Equipment Supplier",UV,UV,Correct,Correct,Wrong,Wrong,"[""Minor Mistake"",""Word Missing"",""Major Mistake""]","[""Word Missing"",""Major Mistake"",""Minor Mistake""]","[""Missing House Number""]","[""Missing House Number""]","[""Other Information"",""Repetition""]","[""Other Information"",""Repetition""]","[""Wrong Province/City/District/Town""]","[""Wrong Province/City/District/Town""]",Correct,Correct,UV,UV,Correct,UV,Fail,Right,Yes,"Address,Tel"
Practice 2,"VenuxxPlaza II, Rua James Joule, Brooklin Novo, Itaim Bibi, São Paulo, Região Imediata de São Paulo, Região Metropolitana de São Paulo, Região Geográfica Intermediária de São Paulo, São Paulo, Região Sudeste, 04571-011, BrasilopenService, Transportation Service",UV,UV,Correct,Correct,UV,UV,null,null,null,null,null,null,null,null,Correct,Correct,UV,UV,Correct,UV,Fail,Right,Yes,Tel
Practice 2,"Kumon Unidade Santos DumontAlameda Santos Dumont, Conjunto Santos Dumont, Da Paz, Manaus, Manaus, Região Geográfica Imediata de Manaus, Região Geográfica Intermediária de Manaus, Amazonas, Região Norte, 69000-000, BrasilopenEducation, School",Correct,Correct,Correct,Correct,Wrong,Wrong,"[""Minor Mistake"",""Major Mistake"",""Word Missing""]","[""Word Missing"",""Minor Mistake"",""Major Mistake""]","[""Missing House Number"",""Missing Floor/Room Number""]","[""Missing Floor/Room Number"",""Missing House Number""]","[""Other Information"",""Repetition""]","[""Other Information""]","[""Wrong Road Name""]","[""Wrong Road Name""]",Correct,Correct,Correct,Correct,Correct,UV,Fail,Right,Yes,"Address,Tel"
Practice 2,"HF IMPORTADOSRua Capitão Vanderley, Piçarreira, Teresina, Região Geográfica Imediata de Teresina, Região Integrada de Desenvolvimento da Grande Teresina, Região Geográfica Intermediária de Teresina, Piauí, Região Nordeste, 64055-330, BrasilopenShopping, Computers and Electronics Retail, Electronics Store",UV,UV,Correct,Correct,Wrong,Wrong,"[""Minor Mistake"",""Word Missing""]","[""Word Missing"",""Minor Mistake""]","[""Missing House Number""]","[""Missing House Number""]","[""Other Information""]","[""Other Information""]",null,null,Correct,Correct,UV,Correct,UV,Correct,Fail,Fail,Yes,"Address,BH"
Practice 2,"Salva Meu Cabelo!Rua Francisco Guimarães, Bosque, Alvorada, Vila Velha, Região Geográfica Imediata de Vitória, Região Metropolitana da Grande Vitória, Região Geográfica Intermediária de Vitória, Espírito Santo, Região Sudeste, 29117-126, BrasilopenShopping, Cosmetics Store",UV,UV,Correct,Correct,Wrong,UV,"[""Minor Mistake"",""Word Missing""]",null,"[""Missing House Number""]",null,"[""Other Information""]",null,null,null,Correct,UV,UV,UV,Correct,Correct,Fail,Right,Yes,"Address,Catergory"
Practice 2,"SERVTECH assistência técnicaRua do Acripreste, Jardim Santo Antoninho, Cidade Ademar, São Paulo, Região Imediata de São Paulo, Região Metropolitana de São Paulo, Região Geográfica Intermediária de São Paulo, São Paulo, Região Sudeste, 04368-110, BrasilopenShopping, Furniture and Home Store, Home Appliance Store",UV,UV,Correct,Correct,Wrong,Wrong,"[""Minor Mistake""]","[""Word Missing"",""Minor Mistake"",""Major Mistake""]",null,"[""Missing House Number""]","[""Other Information""]","[""Other Information""]",null,"[""Wrong Road Name""]",Correct,Correct,UV,UV,UV,UV,Fail,Fail,No,
Practice 2,"Apego DoceRua Eufrásio de Oliveira, Belo Horizonte, Mossoró, Mossoró, Região Geográfica Imediata de Mossoró, Região Geográfica Intermediária de Mossoró, Rio Grande do Norte, Região Nordeste, 59604200, BrasilopenShopping, Food and Beverage Retail, Candy Store",UV,UV,Correct,UV,UV,UV,null,null,null,null,null,null,null,null,Correct,UV,UV,UV,UV,UV,Fail,Right,Yes,Name
Practice 2,"Caldeiraria e Funilaria Pavão - reforma e manutenção de equipamentos agrícolas, rodoviários e automotivosSanta Cruz das Palmeiras, Sao Paulo, BrazilopenService, Repair Service",UV,UV,Correct,Wrong,Wrong,Wrong,"[""Word Missing""]","[""Word Missing""]","[""Missing Road Name"",""Missing House Number"",""Missing Province/City/District/Town""]","[""Missing Province/City/District/Town"",""Missing Road Name"",""Missing House Number""]",null,null,null,null,Correct,Correct,Correct,Correct,Correct,Correct,Fail,TBD,Yes,
Practice 2,"Vallis Clínica MédicaAvenida Damião Junqueira de Souza, Nossa Senhora de Fátima, São Lourenço, Região Geográfica Imediata de São Lourenço, Região Geográfica Intermediária de Pouso Alegre, Minas Gerais, Região Sudeste, 37470000, BrasilopenHealth, Clinic",Correct,UV,Correct,Correct,Wrong,Wrong,"[""Word Missing"",""Minor Mistake"",""Major Mistake""]","[""Word Missing"",""Minor Mistake"",""Major Mistake""]","[""Missing House Number""]","[""Missing House Number""]","[""Other Information""]","[""Other Information""]","[""Wrong Road Name"",""Wrong Province/City/District/Town""]","[""Wrong Province/City/District/Town"",""Wrong Road Name""]",Correct,Correct,UV,UV,Correct,Correct,Fail,Right,Yes,"Status,Address"
Practice 2,"Bella JuSao Jose do Rio Preto, Sao Paulo, BrazilopenShopping, Clothing Store",Correct,UV,Correct,Correct,Wrong,Wrong,"[""Word Missing""]","[""Word Missing""]","[""Missing Road Name"",""Missing House Number"",""Missing Province/City/District/Town""]","[""Missing Road Name"",""Missing Province/City/District/Town"",""Missing House Number""]",null,null,null,null,Correct,Correct,Correct,UV,Correct,Correct,Fail,Right,Yes,"Status,Address"
Practice 2,"CASA DE REPOUSO - Chácara Mandaqui141, Rua Doutor Orlando Zamitti Mammana, Vila Aurora, Mandaqui, São Paulo, Região Imediata de São Paulo, Região Metropolitana de São Paulo, Região Geográfica Intermediária de São Paulo, São Paulo, Região Sudeste, 02417-022, BrasilopenHealth, Hospice",Correct,UV,Correct,Correct,Wrong,Wrong,"[""Minor Mistake"",""Major Mistake""]","[""Minor Mistake"",""Major Mistake""]",null,null,"[""Other Information""]","[""Other Information"",""Repetition""]","[""Wrong House Number""]","[""Wrong House Number""]",Correct,Correct,Wrong,UV,Correct,Correct,Fail,Right,Yes,"Status,Address,BH"
Practice 2,"Continuum Private Assessoria de InvestimentosS2 Leste, Setor de Autarquias Sul, Setor de Autarquias Sul, Brasília, Região Geográfica Imediata do Distrito Federal, Região Integrada de Desenvolvimento do Distrito Federal e Entorno, Região Geográfica Intermediária do Distrito Federal, Distrito Federal, Região Centro-Oeste, 70070-120, BrasilopenService, Financial Service, Financial Planner",Correct,UV,Correct,Correct,Wrong,UV,"[""Minor Mistake"",""Major Mistake"",""Word Missing""]",null,"[""Missing Building Name"",""Missing Floor/Room Number""]",null,"[""Other Information"",""Repetition""]",null,"[""Wrong Province/City/District/Town""]",null,Correct,Correct,UV,UV,Correct,Correct,Fail,Right,Yes,"Status,Address"
Practice 2,"Agrisolo Comércio e ServiçosFraiburgo, Santa Catarina, BrazilopenOffice and Industrial, Company, Construction Company",UV,UV,Correct,Correct,Wrong,Wrong,"[""Word Missing""]","[""Word Missing""]","[""Missing Province/City/District/Town"",""Missing Road Name"",""Missing House Number""]","[""Missing Road Name"",""Missing House Number""]",null,null,null,null,Correct,Correct,Wrong,Wrong,Correct,Correct,Fail,Right,Yes,Address
Practice 2,"Consórcio Embracon Belém2438, Travessa 14 de Março, Cremação, Belém, Belém, Região Geográfica Imediata de Belém, Região Geográfica Intermediária de Belém, Pará, Região Norte, 66040-360, BrasilopenService, Financial Service",Correct,null,Correct,Wrong,Wrong,null,"[""Major Mistake"",""Minor Mistake""]",null,null,null,"[""Other Information"",""Repetition""]",null,"[""Wrong Road Name"",""Wrong House Number"",""Wrong Province/City/District/Town""]",null,Correct,null,Wrong,null,Correct,null,Fail,Right,Yes,"Status,Name,Address,Catergory,BH,Tel"